{
  "type": "FeatureCollection",
  "features": [
    {
      "type": "Feature",
      "properties": {
        "norad_id": 28051,
        "name": "IRS-P6 (RESOURCESAT-1)",
        "group": "resource",
        "lat": -28.6961469275314,
        "lon": 30.779108795454924,
        "alt_km": 815.8893363545731,
        "timestamp": "2025-12-11T18:59:45.722641+00:00",
        "meta_object_name": "IRS-P6 (RESOURCESAT-1)",
        "meta_object_id": "2003-046A",
        "meta_epoch": "2025-12-11T07:42:57.278592",
        "meta_mean_motion": 14.36073626,
        "meta_eccentricity": 0.0064021,
        "meta_inclination": 98.2177,
        "meta_ra_of_asc_node": 25.7938,
        "meta_arg_of_pericenter": 184.9342,
        "meta_mean_anomaly": 237.303,
        "meta_ephemeris_type": 0,
        "meta_classification_type": "U",
        "meta_norad_cat_id": 28051,
        "meta_element_set_no": 999,
        "meta_rev_at_epoch": 15356,
        "meta_bstar": 9.3608614e-05,
        "meta_mean_motion_dot": 2.38e-06,
        "meta_mean_motion_ddot": 0,
        "tle_line1": "1 28051U 03046A   25345.32149628  .00000238  00000+0  93609-4 0  9996",
        "tle_line2": "2 28051  98.2177  25.7938 0064021 184.9342 237.3030 14.36073626153566"
      },
      "geometry": {
        "type": "Point",
        "coordinates": [
          30.779108795454924,
          -28.6961469275314
        ]
      }
    },
    {
      "type": "Feature",
      "properties": {
        "norad_id": 28220,
        "name": "SHIYAN-1 (SY-1)",
        "group": "resource",
        "lat": -68.97461388701842,
        "lon": -153.88510421597084,
        "alt_km": 488.0725717197183,
        "timestamp": "2025-12-11T18:59:45.722653+00:00",
        "meta_object_name": "SHIYAN-1 (SY-1)",
        "meta_object_id": "2004-012A",
        "meta_epoch": "2025-12-11T03:45:31.275072",
        "meta_mean_motion": 15.28073699,
        "meta_eccentricity": 0.00056737,
        "meta_inclination": 97.8932,
        "meta_ra_of_asc_node": 46.601,
        "meta_arg_of_pericenter": 332.2791,
        "meta_mean_anomaly": 27.8144,
        "meta_ephemeris_type": 0,
        "meta_classification_type": "U",
        "meta_norad_cat_id": 28220,
        "meta_element_set_no": 999,
        "meta_rev_at_epoch": 18232,
        "meta_bstar": 0.00071890736,
        "meta_mean_motion_dot": 0.00019641,
        "meta_mean_motion_ddot": 0,
        "tle_line1": "1 28220U 04012A   25345.15661198  .00019641  00000+0  71891-3 0  9996",
        "tle_line2": "2 28220  97.8932  46.6010 0005673 332.2791  27.8144 15.28073699182321"
      },
      "geometry": {
        "type": "Point",
        "coordinates": [
          -153.88510421597084,
          -68.97461388701842
        ]
      }
    },
    {
      "type": "Feature",
      "properties": {
        "norad_id": 28376,
        "name": "AURA",
        "group": "resource",
        "lat": 26.831300989571652,
        "lon": 120.25774191962499,
        "alt_km": 688.674870636517,
        "timestamp": "2025-12-11T18:59:45.722668+00:00",
        "meta_object_name": "AURA",
        "meta_object_id": "2004-026A",
        "meta_epoch": "2025-12-11T06:47:34.738944",
        "meta_mean_motion": 14.60942223,
        "meta_eccentricity": 0.00012099,
        "meta_inclination": 98.3183,
        "meta_ra_of_asc_node": 295.5029,
        "meta_arg_of_pericenter": 94.106,
        "meta_mean_anomaly": 266.0279,
        "meta_ephemeris_type": 0,
        "meta_classification_type": "U",
        "meta_norad_cat_id": 28376,
        "meta_element_set_no": 999,
        "meta_rev_at_epoch": 13877,
        "meta_bstar": 0.00039929501,
        "meta_mean_motion_dot": 1.908e-05,
        "meta_mean_motion_ddot": 0,
        "tle_line1": "1 28376U 04026A   25345.28304096  .00001908  00000+0  39930-3 0  9993",
        "tle_line2": "2 28376  98.3183 295.5029 0001209  94.1060 266.0279 14.60942223138775"
      },
      "geometry": {
        "type": "Point",
        "coordinates": [
          120.25774191962499,
          26.831300989571652
        ]
      }
    },
    {
      "type": "Feature",
      "properties": {
        "norad_id": 28649,
        "name": "IRS-P5 (CARTOSAT-1)",
        "group": "resource",
        "lat": -81.14642469917189,
        "lon": 133.87814950692467,
        "alt_km": 604.745419785906,
        "timestamp": "2025-12-11T18:59:45.722689+00:00",
        "meta_object_name": "IRS-P5 (CARTOSAT-1)",
        "meta_object_id": "2005-017A",
        "meta_epoch": "2025-12-11T01:41:44.812320",
        "meta_mean_motion": 14.9039469,
        "meta_eccentricity": 0.00013144,
        "meta_inclination": 97.5497,
        "meta_ra_of_asc_node": 11.5578,
        "meta_arg_of_pericenter": 46.3716,
        "meta_mean_anomaly": 313.7611,
        "meta_ephemeris_type": 0,
        "meta_classification_type": "U",
        "meta_norad_cat_id": 28649,
        "meta_element_set_no": 999,
        "meta_rev_at_epoch": 11579,
        "meta_bstar": 0.00024249705,
        "meta_mean_motion_dot": 2.309e-05,
        "meta_mean_motion_ddot": 0,
        "tle_line1": "1 28649U 05017A   25345.07065755  .00002309  00000+0  24250-3 0  9995",
        "tle_line2": "2 28649  97.5497  11.5578 0001314  46.3716 313.7611 14.90394690115795"
      },
      "geometry": {
        "type": "Point",
        "coordinates": [
          133.87814950692467,
          -81.14642469917189
        ]
      }
    },
    {
      "type": "Feature",
      "properties": {
        "norad_id": 28893,
        "name": "SINAH 1",
        "group": "resource",
        "lat": -11.250398175287847,
        "lon": 116.00190453309321,
        "alt_km": 694.1626561272878,
        "timestamp": "2025-12-11T18:59:45.722711+00:00",
        "meta_object_name": "SINAH 1",
        "meta_object_id": "2005-043D",
        "meta_epoch": "2025-12-11T07:33:55.492704",
        "meta_mean_motion": 14.63960476,
        "meta_eccentricity": 0.00152675,
        "meta_inclination": 98.2601,
        "meta_ra_of_asc_node": 113.8686,
        "meta_arg_of_pericenter": 141.2138,
        "meta_mean_anomaly": 219.0163,
        "meta_ephemeris_type": 0,
        "meta_classification_type": "U",
        "meta_norad_cat_id": 28893,
        "meta_element_set_no": 999,
        "meta_rev_at_epoch": 7303,
        "meta_bstar": 0.00017502342,
        "meta_mean_motion_dot": 8.69e-06,
        "meta_mean_motion_ddot": 0,
        "tle_line1": "1 28893U 05043D   25345.31522561  .00000869  00000+0  17502-3 0  9996",
        "tle_line2": "2 28893  98.2601 113.8686 0015267 141.2138 219.0163 14.63960476 73033"
      },
      "geometry": {
        "type": "Point",
        "coordinates": [
          116.00190453309321,
          -11.250398175287847
        ]
      }
    },
    {
      "type": "Feature",
      "properties": {
        "norad_id": 29079,
        "name": "EROS B",
        "group": "resource",
        "lat": 3.310731391216306,
        "lon": 101.89206150962235,
        "alt_km": 366.6573670713651,
        "timestamp": "2025-12-11T18:59:45.722725+00:00",
        "meta_object_name": "EROS B",
        "meta_object_id": "2006-014A",
        "meta_epoch": "2025-12-11T06:43:40.796256",
        "meta_mean_motion": 15.67711725,
        "meta_eccentricity": 0.00019068,
        "meta_inclination": 97.3469,
        "meta_ra_of_asc_node": 101.7846,
        "meta_arg_of_pericenter": 294.8466,
        "meta_mean_anomaly": 65.2597,
        "meta_ephemeris_type": 0,
        "meta_classification_type": "U",
        "meta_norad_cat_id": 29079,
        "meta_element_set_no": 999,
        "meta_rev_at_epoch": 9057,
        "meta_bstar": 0.0033686758,
        "meta_mean_motion_dot": 0.00384865,
        "meta_mean_motion_ddot": 0,
        "tle_line1": "1 29079U 06014A   25345.28033329  .00384865  00000+0  33687-2 0  9999",
        "tle_line2": "2 29079  97.3469 101.7846 0001906 294.8466  65.2597 15.67711725 90576"
      },
      "geometry": {
        "type": "Point",
        "coordinates": [
          101.89206150962235,
          3.310731391216306
        ]
      }
    },
    {
      "type": "Feature",
      "properties": {
        "norad_id": 29228,
        "name": "RESURS-DK 1",
        "group": "resource",
        "lat": 64.3932177058803,
        "lon": -125.41357502726437,
        "alt_km": 527.3292903690472,
        "timestamp": "2025-12-11T18:59:45.722737+00:00",
        "meta_object_name": "RESURS-DK 1",
        "meta_object_id": "2006-021A",
        "meta_epoch": "2025-12-10T18:42:49.206816",
        "meta_mean_motion": 15.1214377,
        "meta_eccentricity": 0.00074309,
        "meta_inclination": 69.9334,
        "meta_ra_of_asc_node": 106.9034,
        "meta_arg_of_pericenter": 261.2716,
        "meta_mean_anomaly": 98.7608,
        "meta_ephemeris_type": 0,
        "meta_classification_type": "U",
        "meta_norad_cat_id": 29228,
        "meta_element_set_no": 999,
        "meta_rev_at_epoch": 7408,
        "meta_bstar": 0.00025580505,
        "meta_mean_motion_dot": 4.317e-05,
        "meta_mean_motion_ddot": 0,
        "tle_line1": "1 29228U 06021A   25344.77973619  .00004317  00000+0  25581-3 0  9997",
        "tle_line2": "2 29228  69.9334 106.9034 0007430 261.2716  98.7608 15.12143770 74089"
      },
      "geometry": {
        "type": "Point",
        "coordinates": [
          -125.41357502726437,
          64.3932177058803
        ]
      }
    }
  ]
}